     2.100          NAVIGATION                              RINEX VERSION / TYPE
fic2rin                                 04/17/2014 00:36:43 PGM / RUN BY / DATE
                                                            END OF HEADER
28 14  4 16 20  0  0.0  .347787979990D-03  .284217094304D-11  .000000000000D+00
     .119000000000D+03 -.709062500000D+02  .384980321690D-08  .507171155977D+00
    -.364892184734D-05  .191354772542D-01  .122729688883D-04  .515367352486D+04
     .331200000000D+06 -.232830643654D-06 -.298045516762D+01 -.260770320892D-07
     .986697949850D+00  .164906250000D+03 -.171717760240D+01 -.794890253227D-08
    -.151434879299D-09  .100000000000D+01  .178800000000D+04  .000000000000D+00
     .340000000000D+01  .000000000000D+00 -.107102096081D-07  .119000000000D+03
     .324006000000D+06  .400000000000D+01
29 14  4 16 20  0  0.0  .525901559740D-03  .261479726760D-11  .000000000000D+00
     .400000000000D+02  .396250000000D+02  .447554356721D-08  .248666023090D+01
     .205077230930D-05  .166160985827D-02  .794045627117D-05  .515371824837D+04
     .331200000000D+06  .409781932831D-07 -.194513679309D+01  .186264514923D-07
     .968720146648D+00  .229500000000D+03 -.929650109076D+00 -.795961726429D-08
     .481091467962D-09  .100000000000D+01  .178800000000D+04  .000000000000D+00
     .240000000000D+01  .000000000000D+00 -.931322574615D-08  .400000000000D+02
     .324006000000D+06  .400000000000D+01
31 14  4 16 20  0  0.0  .334224663675D-03  .113686837722D-12  .000000000000D+00
     .101000000000D+03 -.676250000000D+02  .455626121514D-08  .304412081677D+01
    -.335089862347D-05  .804515380878D-02  .243447721004D-05  .515352965927D+04
     .331200000000D+06 -.242143869400D-07  .222226338914D+01  .162050127983D-06
     .978467070955D+00  .343312500000D+03 -.641037364911D+00 -.818569811004D-08
    -.230366738556D-09  .100000000000D+01  .178800000000D+04  .000000000000D+00
     .240000000000D+01  .000000000000D+00 -.130385160446D-07  .101000000000D+03
     .324006000000D+06  .400000000000D+01
32 14  4 16 20  0  0.0 -.448056031018D-03  .761701812735D-11  .000000000000D+00
     .130000000000D+02  .404062500000D+02  .432625163432D-08 -.249630902120D+01
     .211782753468D-05  .114297509426D-01  .125970691442D-04  .515377052689D+04
     .331200000000D+06 -.212341547012D-06  .182983329419D+00  .111758708954D-07
     .948420297467D+00  .131656250000D+03 -.170072685307D+00 -.781175396234D-08
    -.107861635727D-09  .100000000000D+01  .178800000000D+04  .000000000000D+00
     .240000000000D+01  .000000000000D+00 -.325962901115D-08  .130000000000D+02
     .324006000000D+06  .400000000000D+01
 9 14  4 16 19 59 44.0  .320652034134D-03  .284217094304D-11  .000000000000D+00
     .160000000000D+02 -.675625000000D+02  .446340020425D-08 -.202348404669D+01
    -.300444662571D-05  .171141093597D-01  .230036675930D-05  .515368084908D+04
     .331184000000D+06  .819563865662D-07  .219557585153D+01  .277534127235D-06
     .982051534777D+00  .345625000000D+03  .178890098238D+01 -.809283709915D-08
    -.187150652719D-09  .100000000000D+01  .178800000000D+04  .000000000000D+00
     .240000000000D+01  .000000000000D+00 -.605359673500D-08  .160000000000D+02
     .324456000000D+06  .400000000000D+01
26 14  4 16 19 59 44.0  .106759369373D-03 -.113686837722D-10  .000000000000D+00
     .500000000000D+01  .118156250000D+03  .435589572626D-08 -.155657520213D+01
     .661611557007D-05  .214715840993D-01  .392086803913D-05  .515369438744D+04
     .331184000000D+06  .393018126488D-06  .124246724102D+01  .320374965668D-06
     .975249518691D+00  .309718750000D+03  .127707048937D+01 -.815248244076D-08
     .498592196938D-09  .100000000000D+01  .178800000000D+04  .000000000000D+00
     .240000000000D+01  .000000000000D+00 -.605359673500D-08  .500000000000D+01
     .327156000000D+06  .400000000000D+01
13 14  4 16 19 59 28.0  .906502828002D-05 -.397903932026D-11  .000000000000D+00
     .000000000000D+00  .104343750000D+03  .438661129140D-08 -.758318070740D+00
     .515207648277D-05  .535769027192D-02  .451691448689D-05  .515360325432D+04
     .331168000000D+06 -.447034835815D-07  .125106462770D+01  .186264514923D-08
     .977847130161D+00  .304656250000D+03  .222493617265D+01 -.822855703814D-08
     .465733685392D-09  .100000000000D+01  .178800000000D+04  .000000000000D+00
     .240000000000D+01  .000000000000D+00 -.111758708954D-07  .000000000000D+00
     .330036000000D+06  .400000000000D+01
13 14  4 16 21 59 28.0  .903662294149D-05 -.397903932026D-11  .000000000000D+00
     .500000000000D+01  .997812500000D+02  .424767693279D-08  .292013819502D+00
     .516511499882D-05  .535897200461D-02  .469945371151D-05  .515360588455D+04
     .338368000000D+06 -.372529029846D-07  .125100542780D+01 -.353902578354D-07
     .977850391005D+00  .294968750000D+03  .222482555995D+01 -.822712840721D-08
     .450018745087D-09  .100000000000D+01  .178800000000D+04  .000000000000D+00
     .240000000000D+01  .000000000000D+00 -.111758708954D-07  .500000000000D+01
     .331206000000D+06  .400000000000D+01
 9 14  4 16 21 59 44.0  .320672988892D-03  .284217094304D-11  .000000000000D+00
     .170000000000D+02 -.618437500000D+02  .455661837287D-08 -.973336443164D+00
    -.310875475407D-05  .171146448702D-01  .320002436638D-05  .515367994690D+04
     .338384000000D+06 -.270083546638D-06  .219551524869D+01  .745058059692D-08
     .982048512388D+00  .338500000000D+03  .178893132915D+01 -.852892669260D-08
    -.989326923723D-10  .100000000000D+01  .178800000000D+04  .000000000000D+00
     .240000000000D+01  .000000000000D+00 -.605359673500D-08  .170000000000D+02
     .331206000000D+06  .400000000000D+01
26 14  4 16 21 59 44.0  .106677412987D-03 -.113686837722D-10  .000000000000D+00
     .600000000000D+01  .104437500000D+03  .451268797157D-08 -.506491696361D+00
     .572018325329D-05  .214699571952D-01  .512227416039D-05  .515368977547D+04
     .338384000000D+06 -.104308128357D-06  .124240639533D+01  .277534127235D-06
     .975251272730D+00  .297625000000D+03  .127715566485D+01 -.858178603726D-08
     .517521556850D-09  .100000000000D+01  .178800000000D+04  .000000000000D+00
     .240000000000D+01  .000000000000D+00 -.605359673500D-08  .600000000000D+01
     .331206000000D+06  .400000000000D+01
 1 14  4 16 22  0  0.0  .884290784597D-05  .147792889038D-11  .000000000000D+00
     .550000000000D+02 -.328750000000D+02  .480341436720D-08 -.141926919003D+01
    -.165030360222D-05  .291303091217D-02  .533461570740D-05  .515367254066D+04
     .338400000000D+06  .558793544769D-08 -.944379395890D+00 -.102445483208D-06
     .960584551997D+00  .278812500000D+03  .317918018607D+00 -.820212736581D-08
    -.389301930274D-09  .100000000000D+01  .178800000000D+04  .000000000000D+00
     .240000000000D+01  .000000000000D+00  .651925802231D-08  .550000000000D+02
     .331206000000D+06  .400000000000D+01
 2 14  4 16 22  0  0.0  .490108970553D-03  .216004991671D-11  .000000000000D+00
     .480000000000D+02 -.303437500000D+02  .551308678505D-08 -.805143101419D+00
    -.150315463543D-05  .134547646157D-01  .485219061375D-05  .515357812500D+04
     .338400000000D+06  .232830643654D-06 -.973086597237D+00  .232830643654D-06
     .939101039705D+00  .274562500000D+03 -.244214729836D+01 -.868964767299D-08
    -.426089176896D-09  .100000000000D+01  .178800000000D+04  .000000000000D+00
     .240000000000D+01  .000000000000D+00 -.200234353542D-07  .480000000000D+02
     .331206000000D+06  .400000000000D+01
 3 14  4 16 22  0  0.0  .352670904249D-03  .500222085975D-11  .000000000000D+00
     .300000000000D+02  .320937500000D+02  .526771942166D-08 -.638469106892D+00
     .185519456863D-05  .168472609948D-01  .919774174690D-05  .515378086281D+04
     .338400000000D+06 -.184401869774D-06 -.214769900470D+01  .119209289551D-06
     .937770286034D+00  .190750000000D+03  .137568103969D+01 -.863250243552D-08
     .475376944215D-09  .100000000000D+01  .178800000000D+04  .000000000000D+00
     .340000000000D+01  .000000000000D+00 -.465661287308D-08  .300000000000D+02
     .331206000000D+06  .400000000000D+01
 4 14  4 16 22  0  0.0  .667944550514D-05  .227373675443D-12  .000000000000D+00
     .780000000000D+02 -.365625000000D+02  .534736559638D-08  .258015730906D+01
    -.203214585781D-05  .105646380689D-01  .472739338875D-05  .515371342278D+04
     .338400000000D+06  .689178705215D-07 -.957024401873D+00 -.126659870148D-06
     .938131795035D+00  .275187500000D+03  .108937553385D+01 -.837249160502D-08
    -.411088552060D-09  .100000000000D+01  .178800000000D+04  .000000000000D+00
     .240000000000D+01  .000000000000D+00 -.605359673500D-08  .780000000000D+02
     .331206000000D+06  .400000000000D+01
 5 14  4 16 22  0  0.0 -.378493219614D-03  .216004991671D-11  .000000000000D+00
     .890000000000D+02  .279062500000D+02  .445089968355D-08  .151865764703D+01
     .149942934513D-05  .357566773891D-02  .120885670185D-04  .515357938385D+04
     .338400000000D+06 -.167638063431D-07  .941591027217D-01  .186264514923D-08
     .947924243890D+00  .140812500000D+03  .325380267177D+00 -.790354350003D-08
    -.352157525917D-09  .100000000000D+01  .178800000000D+04  .000000000000D+00
     .240000000000D+01  .000000000000D+00 -.102445483208D-07  .890000000000D+02
     .331206000000D+06  .400000000000D+01
 6 14  4 16 22  0  0.0 -.155090820044D-03 -.193267624127D-11  .000000000000D+00
     .113000000000D+03 -.104656250000D+03  .514092842602D-08  .165564218435D+01
    -.531785190105D-05  .690818228759D-02  .121667981148D-04  .515379191780D+04
     .338400000000D+06 -.173225998878D-06 -.302866633366D+01  .130385160446D-07
     .981072972782D+00  .158968750000D+03  .845882177839D+00 -.770389232661D-08
    -.625026034843D-10  .100000000000D+01  .178800000000D+04  .000000000000D+00
     .240000000000D+01  .630000000000D+02 -.190921127796D-07  .113000000000D+03
     .331206000000D+06  .400000000000D+01
